GPS BIIA-10 (PRN 32)    
1 20959U 90103A   08166.62054986 -.00000095  00000-0  10000-3 0  8672
2 20959  55.5156 297.7174 0139256 285.2366  73.2165  2.00450545128537
GPS BIIA-11 (PRN 24)    
1 21552U 91047A   08167.34034227  .00000022  00000-0  10000-3 0  9137
2 21552  54.5941 235.7730 0078531 317.4037  42.0657  2.00563463124135
GPS BIIA-12 (PRN 25)    
1 21890U 92009A   08166.84155253 -.00000090  00000-0  10000-3 0  9099
2 21890  55.2933  47.4161 0120058 288.6640  70.0822  2.00560525119502
GPS BIIA-14 (PRN 26)    
1 22014U 92039A   08167.44325809 -.00000089  00000-0  10000-3 0  4154
2 22014  56.9188 355.4755 0189801  53.3244 308.4347  2.00572001110288
GPS BIIA-15 (PRN 27)    
1 22108U 92058A   08166.87459349 -.00000089  00000-0  10000-3 0  6840
2 22108  55.5574  49.4098 0213429 262.6383  94.9751  2.00552673115452
GPS BIIA-21 (PRN 09)    
1 22700U 93042A   08167.06790767 -.00000088  00000-0  10000-3 0   872
2 22700  55.6676  50.7677 0197072  80.7746 281.4897  2.00564769109613
GPS BIIA-22 (PRN 05)    
1 22779U 93054A   08167.16788840 -.00000027  00000-0  10000-3 0  5969
2 22779  54.0213 107.5985 0085980  69.9544 290.9360  2.00573589108373
GPS BIIA-23 (PRN 04)    
1 22877U 93068A   08167.20506037  .00000026  00000-0  10000-3 0  3836
2 22877  54.0077 233.3920 0079808  20.1901 340.2010  2.00550023107261
GPS BIIA-24 (PRN 06)    
1 23027U 94016A   08167.39865269  .00000087  00000-0  10000-3 0  4202
2 23027  53.4884 170.4728 0061550 265.1231  94.2007  2.00556342104570
GPS BIIA-25 (PRN 03)    
1 23833U 96019A   08166.91765532  .00000086  00000-0  10000-3 0  5975
2 23833  53.0555 166.7834 0104792  46.1081 314.7742  2.00561785 89540
GPS BIIA-26 (PRN 10)    
1 23953U 96041A   08167.33935290 -.00000088  00000-0  10000-3 0   215
2 23953  55.2024 294.2924 0078662  30.9414 329.4878  2.00566538 87342
GPS BIIA-27 (PRN 30)    
1 24320U 96056A   08166.20036562 -.00000014  00000-0  10000-3 0  7822
2 24320  54.3695 110.6001 0104207  78.6850 282.4511  2.00556554 85987
GPS BIIR-02 (PRN 13)    
1 24876U 97035A   08167.29223655 -.00000089  00000-0  10000-3 0  5625
2 24876  57.0402 355.5585 0035588  83.4156 277.0209  2.00569514 79879
GPS BIIA-28 (PRN 08)    
1 25030U 97067A   08166.91762483 -.00000086  00000-0  10000-3 0  4668
2 25030  56.3669  55.9119 0100527 166.7518 193.5478  2.00571185 77769
GPS BIIR-03 (PRN 11)    
1 25933U 99055A   08166.57073637  .00000040  00000-0  10000-3 0   370
2 25933  51.0574 221.8769 0079344  33.0571 327.5160  2.00567629 63670
GPS BIIR-04 (PRN 20)    
1 26360U 00025A   08167.15936510 -.00000088  00000-0  10000-3 0  1270
2 26360  54.2644 291.8350 0034516  76.6346 283.7452  2.00577683 59387
GPS BIIR-05 (PRN 28)    
1 26407U 00040A   08167.00837615 -.00000011  00000-0  10000-3 0   724
2 26407  55.2304 114.4150 0140442 240.7070 117.8481  2.00558694 58058
GPS BIIR-06 (PRN 14)    
1 26605U 00071A   08167.10037588 -.00000091  00000-0  10000-3 0   683
2 26605  56.6833 354.5678 0039199 237.6627 121.9817  2.00561167 55652
GPS BIIR-07 (PRN 18)    
1 26690U 01004A   08167.46636008 -.00000089  00000-0  10000-3 0  9546
2 26690  54.2914 294.8963 0094769 217.6562 141.6686  2.00561575 54074
GPS BIIR-08 (PRN 16)    
1 27663U 03005A   08167.31914204 -.00000014  00000-0  10000-3 0  3307
2 27663  55.3356 113.9090 0048686 329.8828  29.7977  2.00571150 39428
GPS BIIR-09 (PRN 21)    
1 27704U 03010A   08166.89029688  .00000020  00000-0  10000-3 0  2185
2 27704  53.6404 234.2880 0140576 205.3132 154.0678  2.00558016 38201
GPS BIIR-10 (PRN 22)    
1 28129U 03058A   08167.51498878 -.00000089  00000-0  10000-3 0  8542
2 28129  54.1545 295.2640 0050029 256.7666 102.6663  2.00564225 32926
GPS BIIR-11 (PRN 19)    
1 28190U 04009A   08167.45770737  .00000094  00000-0  10000-3 0  7776
2 28190  54.8564 176.8155 0048331 323.1698  36.5389  2.00561686 31099
GPS BIIR-12 (PRN 23)    
1 28361U 04023A   08166.74888304 -.00000094  00000-0  10000-3 0  6111
2 28361  55.6557 353.0667 0054708 159.5966 200.6480  2.00557222 29163
GPS BIIR-13 (PRN 02)    
1 28474U 04045A   08167.24395803  .00000029  00000-0  10000-3 0  4859
2 28474  54.0488 232.3098 0087308 148.4858 212.1142  2.00556225 26533
GPS BIIRM-1 (PRN 17)    
1 28874U 05038A   08167.10139237  .00000094  00000-0  10000-3 0  7448
2 28874  54.9845 173.5579 0036835 204.6553 155.2023  2.00553382 19953
GPS BIIRM-2 (PRN 31)    
1 29486U 06042A   08167.20885850 -.00000087  00000-0  10000-3 0  3038
2 29486  55.4699  52.6383 0069438 289.5772  69.7121  2.00554789 12656
GPS BIIRM-3 (PRN 12)    
1 29601U 06052A   08166.15554038 -.00000007  00000-0  10000-3 0  2932
2 29601  55.2382 113.0141 0036460 302.0116  57.6095  2.00572043 11544
GPS BIIRM-4 (PRN 15)    
1 32260U 07047A   08166.45651465 -.00000097  00000-0  00000-0 0  1098
2 32260  54.8689 352.2110 0008505 283.7666  76.1556  2.00565204  4946
GPS BIIRM-5 (PRN 29)    
1 32384U 07062A   08166.28134429  .00000098  00000-0  10000-3 0  1116
2 32384  54.9904 174.0583 0039797 278.7108  80.8783  2.00564988  3660
GPS BIIRM-6 (PRN 07)    
1 32711U 08012A   08166.87105312 -.00000089  00000-0  10000-3 0   413
2 32711  55.1522  52.8681 0016182 155.9640 204.1480  2.00559305  1889
